0 ERBS
1 15354U 84108B   13282.79044627  .00007405  00000-0  31176-3 0  3221
2 15354 057.0141 103.5800 0023662 092.8857 267.4897 15.24154758591395
0 ERBS
1 15354U 84108B   13283.83985131  .00008780  00000-0  36698-3 0  3233
2 15354 057.0145 099.1944 0023670 094.2660 266.1092 15.24167769591552
0 ERBS
1 15354U 84108B   13286.46332121  .00007191  00000-0  30269-3 0  3255
2 15354 057.0152 088.2304 0023697 097.5532 262.8207 15.24204167591951
0 ERBS
1 15354U 84108B   13287.77503127  .00010132  00000-0  42064-3 0  3262
2 15354 057.0158 082.7482 0023685 099.1151 261.2576 15.24224573592153
0 ERBS
1 15354U 84108B   13289.48022470  .00009510  00000-0  39530-3 0  3272
2 15354 057.0169 075.6216 0023637 101.2223 259.1482 15.24257544592418
0 ERBS
1 15354U 84108B   13290.59514007  .00009932  00000-0  41205-3 0  3289
2 15354 057.0176 070.9620 0023585 102.6165 257.7521 15.24274777592588
0 ERBS
1 15354U 84108B   13291.90678788  .00007817  00000-0  32698-3 0  3299
2 15354 057.0185 065.4807 0023504 104.2303 256.1356 15.24298145592783
0 ERBS
1 15354U 84108B   13293.48074133  .00008333  00000-0  34744-3 0  3308
2 15354 057.0189 058.9031 0023405 106.3638 253.9984 15.24321843593029
0 ERBS
1 15354U 84108B   13294.53002927  .00008997  00000-0  37391-3 0  3315
2 15354 057.0189 054.5178 0023315 107.8460 252.5132 15.24335723593181
0 ERBS
1 15354U 84108B   13295.71046630  .00008313  00000-0  34638-3 0  3329
2 15354 057.0185 049.5842 0023184 109.5528 250.8025 15.24353255593369
